GLOBALSTAR M069         
1 31573U 07020C   26202.27777394 -.00000053  00000+0  36909-3 0  9994
2 31573  52.0016 155.6351 0001500 223.5190 282.3705 12.23472434882972
GLOBALSTAR M072         
1 31574U 07020D   26201.78019747 -.00000092  00000+0 -10486-3 0  9997
2 31574  51.9952  10.8115 0001648  45.7413  56.8102 11.91658720878984
GLOBALSTAR M066         
1 32265U 07048C   26201.61594905 -.00000033  00000+0  51907-3 0  9998
2 32265  51.9612 321.9495 0005520 112.7664 260.2400 12.30390155864344
GLOBALSTAR M079         
1 37188U 10054A   26201.79985708 -.00000103  00000+0  59721-5 0  9994
2 37188  52.0057   6.3479 0001122  86.8814  21.4025 12.62266428726792
GLOBALSTAR M074         
1 37189U 10054B   26201.72628025 -.00000108  00000+0 -22145-4 0  9999
2 37189  52.0036   5.8322 0000849 101.4908 272.1774 12.62262037727399
GLOBALSTAR M076         
1 37190U 10054C   26201.77250789 -.00000090  00000+0  78716-4 0  9998
2 37190  52.0052   5.8977 0001095  98.8648   4.8835 12.62262572727111
GLOBALSTAR M077         
1 37191U 10054D   26202.13106969 -.00000097  00000+0 -34665-3 0  9992
2 37191  51.9962  93.1410 0002166 236.1382 271.8029 11.67547146725109
GLOBALSTAR M075         
1 37192U 10054E   26202.27573685 -.00000109  00000+0 -29382-4 0  9996
2 37192  51.9956  46.4005 0000791  73.3734  98.8792 12.62267896726245
GLOBALSTAR M073         
1 37193U 10054F   26202.11760072 -.00000098  00000+0  33666-4 0  9994
2 37193  52.0082 321.0099 0000986 106.0331  65.5656 12.62266955728210
GLOBALSTAR M083         
1 37739U 11033A   26202.17774277 -.00000096  00000+0  45145-4 0  9999
2 37739  51.9854 269.0100 0000686 111.8727 274.4002 12.62264365697242
GLOBALSTAR M088         
1 37740U 11033B   26202.22782015 -.00000092  00000+0  67116-4 0  9994
2 37740  52.0192 175.3648 0000156  36.7878 335.9269 12.62269504692794
GLOBALSTAR M091         
1 37741U 11033C   26202.18952008 -.00000085  00000+0  10327-3 0  9994
2 37741  51.9989 138.3969 0000567  34.4458 104.6587 12.62264318693576
GLOBALSTAR M085         
1 37742U 11033D   26202.18306200 -.00000092  00000+0  63297-4 0  9995
2 37742  52.0129  89.7389 0000890  52.1304 117.6149 12.62264522694088
GLOBALSTAR M081         
1 37743U 11033E   26202.12892777 -.00000096  00000+0  41060-4 0  9997
2 37743  51.9960  92.3009 0000767  63.2894 100.2274 12.62265384694229
GLOBALSTAR M089         
1 37744U 11033F   26202.00746406 -.00000105  00000+0 -77084-5 0  9990
2 37744  51.9941  46.8226 0000725  96.2894  56.1622 12.62267640695059
GLOBALSTAR M084         
1 38040U 11080A   26202.23207881 -.00000094  00000+0  53982-4 0  9992
2 38040  52.0008 273.6402 0000700 141.3675 251.9871 12.62263700673064
